{
  "norad_id": 66637,
  "name": "STARLINK-35953",
  "history": [
    {
      "epoch": "2026-03-28T14:42:17.828640Z",
      "apogee_km": 476.24714043507356,
      "perigee_km": 474.1294629168551,
      "latitude_deg": -4.362280181839675e-05,
      "longitude_deg": 5.445434751046925,
      "height_km": 476.2134958933026,
      "semi_major_axis_km": 6853.325301675964,
      "eccentricity": 0.0001545,
      "inclination_deg": 53.1618,
      "raan_deg": 52.0504,
      "arg_perigee_deg": 96.9043,
      "mean_anomaly_deg": 263.2133,
      "mean_motion_rev_day": 15.30208965
    },
    {
      "epoch": "2026-03-29T04:48:46.289664Z",
      "apogee_km": 476.0738859246012,
      "perigee_km": 474.2454263767413,
      "latitude_deg": -3.191421719621332e-06,
      "longitude_deg": 150.51808611791492,
      "height_km": 475.9807547571004,
      "semi_major_axis_km": 6853.296656150671,
      "eccentricity": 0.0001334,
      "inclination_deg": 53.1607,
      "raan_deg": 49.321,
      "arg_perigee_deg": 85.1699,
      "mean_anomaly_deg": 274.9454,
      "mean_motion_rev_day": 15.30218559
    },
    {
      "epoch": "2026-03-30T04:19:34.235040Z",
      "apogee_km": 475.6074087808547,
      "perigee_km": 474.80556759273804,
      "latitude_deg": 3.065530589411096e-05,
      "longitude_deg": 152.30128188563347,
      "height_km": 476.30826790009047,
      "semi_major_axis_km": 6853.343488186796,
      "eccentricity": 5.85e-05,
      "inclination_deg": 53.1604,
      "raan_deg": 44.7696,
      "arg_perigee_deg": 120.3636,
      "mean_anomaly_deg": 239.7423,
      "mean_motion_rev_day": 15.30202874
    }
  ]
}